[{"OBJECT_NAME":"STARLINK-31136","OBJECT_ID":"2024-011H","EPOCH":"2026-03-09T06:06:22.536864","MEAN_MOTION":15.30191438,"ECCENTRICITY":8.738e-5,"INCLINATION":53.1616,"RA_OF_ASC_NODE":15.6954,"ARG_OF_PERICENTER":109.0799,"MEAN_ANOMALY":251.0296,"EPHEMERIS_TYPE":0,"CLASSIFICATION_TYPE":"U","NORAD_CAT_ID":58772,"ELEMENT_SET_NO":999,"REV_AT_EPOCH":12019,"BSTAR":5.949142e-6,"MEAN_MOTION_DOT":-1.83e-6,"MEAN_MOTION_DDOT":0},{"OBJECT_NAME":"TOMORROW-S1","OBJECT_ID":"2024-149M","EPOCH":"2026-03-09T17:23:34.533600","MEAN_MOTION":15.31198363,"ECCENTRICITY":0.00018188,"INCLINATION":97.3791,"RA_OF_ASC_NODE":149.6044,"ARG_OF_PERICENTER":207.204,"MEAN_ANOMALY":152.9106,"EPHEMERIS_TYPE":0,"CLASSIFICATION_TYPE":"U","NORAD_CAT_ID":60479,"ELEMENT_SET_NO":999,"REV_AT_EPOCH":8686,"BSTAR":0.0002885603,"MEAN_MOTION_DOT":8.62e-5,"MEAN_MOTION_DDOT":0}]
