STARLINK-31136          
1 58772U 24011H   26068.25442751 -.00000183  00000+0  59491-5 0  9994
2 58772  53.1616  15.6954 0000873 109.0799 251.0296 15.30191438120199
TOMORROW-S1             
1 60479U 24149M   26068.72470524  .00008620  00000+0  28856-3 0  9996
2 60479  97.3791 149.6044 0001819 207.2040 152.9106 15.31198362 86867
